IRIDIUM 126             
1 42809U 17039G   25064.72281492 -.00000060  00000+0 -28651-4 0  9998
2 42809  86.4039 189.3995 0002176  96.5293 263.6151 14.34216575402805
IRIDIUM 124             
1 42810U 17039H   25064.65323787  .00000073  00000+0  15657-4 0  9990
2 42810  86.4498 126.2743 0002227  89.9715 270.1741 14.43277492407537
IRIDIUM 128             
1 42811U 17039J   25064.85308697  .00000520  00000+0  17859-3 0  9998
2 42811  86.3976 220.8165 0001993  84.1403 276.0020 14.34218772402858
IRIDIUM 121             
1 42812U 17039K   25064.88137660  .00000117  00000+0  34790-4 0  9998
2 42812  86.4035 189.3567 0001967  96.4418 263.7002 14.34219134402704
IRIDIUM 133             
1 42955U 17061A   25064.88479380  .00000240  00000+0  78635-4 0  9992
2 42955  86.3975 220.9090 0002130  89.5968 270.5472 14.34215951387659
IRIDIUM 100             
1 42956U 17061B   25064.87845495  .00000512  00000+0  17581-3 0  9990
2 42956  86.3975 220.8414 0002067  89.1719 270.9714 14.34216321387653
IRIDIUM 122             
1 42957U 17061C   25065.47465534  .00000099  00000+0  28259-4 0  9995
2 42957  86.3977 220.5912 0002301  90.0139 270.1321 14.34215582387748
IRIDIUM 129             
1 42958U 17061D   25064.87211562  .00000423  00000+0  14412-3 0  9995
2 42958  86.3977 220.9050 0002111 103.2987 256.8444 14.34216887387671
